AQUA                    
1 27424U 02022A   26069.16905890  .00001371  00000+0  28332-3 0  9998
2 27424  98.4176  36.5427 0000564  82.9977   6.5951 14.61978468268804
CZ-4B R/B               
1 27432U 02024C   26069.13614772  .00000038  00000+0  42305-4 0  9998
2 27432  98.8838 122.5406 0050462  22.9379   1.3520 14.14547639229304
MIDORI II (ADEOS-II)    
1 27597U 02056A   26068.87371145  .00000417  00000+0  18155-3 0  9995
2 27597  98.7769  27.3525 0001570  42.2245 317.9057 14.29285373210328
H-2A R/B                
1 27601U 02056E   26068.91815663  .00000345  00000+0  13542-3 0  9999
2 27601  98.3202  29.2750 0070512 160.0116 268.6683 14.33760927214140
CZ-4B R/B               
1 28059U 03049C   26069.00243094  .00000485  00000+0  12278-3 0  9994
2 28059  98.6880  63.9194 0047270 229.9345 129.7701 14.55020527186644
CZ-2C R/B               
1 28222U 04012C   26069.12081571  .00061764  00000+0  63588-3 0  9997
2 28222  97.7223 134.4534 0012869 307.3877  52.6209 15.64563089204347
SL-16 R/B               
1 28353U 04021B   26068.88128527 -.00000243  00000+0 -10191-3 0  9996
2 28353  70.9995 232.0903 0004064   8.9977 351.1217 14.14597913122868
CZ-4B R/B               
1 28415U 04035C   26069.10555057  .00009794  00000+0  34466-3 0  9997
2 28415  97.3501 103.3428 0030976 330.0330  29.9136 15.29073214179972
CZ-2C R/B               
1 28480U 04046B   26069.18676132  .00000156  00000+0  72881-4 0  9994
2 28480  98.1982 344.1398 0139904 152.9810 207.8744 14.26992299108571
ARIANE 5 R/B            
1 28499U 04049H   26069.03687330  .00000994  00000+0  11594-3 0  9996
2 28499  98.2628 237.5069 0083911 350.7967   9.1704 14.85266546145840
CZ-2D R/B               
1 28738U 05024B   26069.03008022  .00046744  00000+0  57332-3 0  9994
2 28738  97.3603  84.1881 0005785  45.9061 314.2671 15.60183063139839
ALOS (DAICHI)           
1 28931U 06002A   26068.84331994  .00001879  00000+0  32296-3 0  9993
2 28931  98.1218  24.7979 0000904  55.8758 304.2533 14.69811163 73508
